ONEWEB-0156             
1 48052U 21025L   24074.19110265  .00000214  00000+0  54985-3 0  9991
2 48052  87.8941 124.4496 0002067  99.9075 260.2287 13.13468936145272
ONEWEB-0161             
1 48053U 21025M   24074.39265683 -.00000291  00000+0 -83078-3 0  9991
2 48053  87.8942 124.4141 0001878 104.9624 255.1713 13.13469047145245
ONEWEB-0158             
1 48054U 21025N   24074.20222096  .00000406  00000+0  10767-2 0  9993
2 48054  87.8941 124.4453 0002119  95.6899 264.4472 13.13469908145331
ONEWEB-0157             
1 48055U 21025P   24074.14983899 -.00000052  00000+0 -17780-3 0  9994
2 48055  87.8942 124.4720 0002103 105.6428 254.4933 13.13469231145265
ONEWEB-0162             
1 48056U 21025Q   24074.49422963  .00000141  00000+0  35054-3 0  9994
2 48056  87.8938 124.4005 0002098  99.9630 260.1736 13.13470353145262
ONEWEB-0155             
1 48057U 21025R   24074.51486365  .00000316  00000+0  83002-3 0  9994
2 48057  87.8939 124.4052 0001962  98.6957 261.4395 13.13468423145432
ONEWEB-0149             
1 48058U 21025S   24074.38313052 -.00000658  00000+0 -18362-2 0  9999
2 48058  87.8935 124.4283 0002488 100.6270 259.5139 13.13466108145220
ONEWEB-0148             
1 48059U 21025T   24074.50057524  .00000221  00000+0  57013-3 0  9994
2 48059  87.8943 124.4115 0002489 110.8655 249.2741 13.13468530145355
